CSS (TIANHE)            
1 48274U 21035A   24091.75470053  .00046006  00000+0  46423-3 0  9990
2 48274  41.4676 196.3438 0010108 294.2599  65.7185 15.64479182166977
